{
    "links": {
        "self": "http://www.neowsapp.com/rest/v1/neo/3733297?api_key=iIulBulltgU6a56xZRHN4H3l9WmuAYTsLGpBGhQ2"
    },
    "id": "3733297",
    "neo_reference_id": "3733297",
    "name": "(2015 VV2)",
    "designation": "2015 VV2",
    "nasa_jpl_url": "http://ssd.jpl.nasa.gov/sbdb.cgi?sstr=3733297",
    "absolute_magnitude_h": 24.9,
    "estimated_diameter": {
        "kilometers": {
            "estimated_diameter_min": 0.0278326768,
            "estimated_diameter_max": 0.0622357573
        },
        "meters": {
            "estimated_diameter_min": 27.8326768072,
            "estimated_diameter_max": 62.2357573367
        },
        "miles": {
            "estimated_diameter_min": 0.0172944182,
            "estimated_diameter_max": 0.0386714948
        },
        "feet": {
            "estimated_diameter_min": 91.3145593761,
            "estimated_diameter_max": 204.1855621004
        }
    },
    "is_potentially_hazardous_asteroid": false,
    "close_approach_data": [
        {
            "close_approach_date": "2013-10-10",
            "close_approach_date_full": "2013-Oct-10 08:18",
            "epoch_date_close_approach": 1381393080000,
            "relative_velocity": {
                "kilometers_per_second": "15.6414575414",
                "kilometers_per_hour": "56309.2471491235",
                "miles_per_hour": "34988.3763744096"
            },
            "miss_distance": {
                "astronomical": "0.3431842959",
                "lunar": "133.4986911051",
                "kilometers": "51339639.684089733",
                "miles": "31900972.8319269954"
            },
            "orbiting_body": "Earth"
        },
        {
            "close_approach_date": "2015-11-18",
            "close_approach_date_full": "2015-Nov-18 22:33",
            "epoch_date_close_approach": 1447885980000,
            "relative_velocity": {
                "kilometers_per_second": "5.7889623224",
                "kilometers_per_hour": "20840.2643606503",
                "miles_per_hour": "12949.3298189829"
            },
            "miss_distance": {
                "astronomical": "0.0442498629",
                "lunar": "17.2131966681",
                "kilometers": "6619685.237632023",
                "miles": "4113281.6712589974"
            },
            "orbiting_body": "Earth"
        },
        {
            "close_approach_date": "2018-01-15",
            "close_approach_date_full": "2018-Jan-15 20:17",
            "epoch_date_close_approach": 1516047420000,
            "relative_velocity": {
                "kilometers_per_second": "15.4452921559",
                "kilometers_per_hour": "55603.0517610668",
                "miles_per_hour": "34549.5740234251"
            },
            "miss_distance": {
                "astronomical": "0.3631365151",
                "lunar": "141.2601043739",
                "kilometers": "54324449.178182837",
                "miles": "33755647.4491516706"
            },
            "orbiting_body": "Earth"
        }
    ],
    "orbital_data": {
        "orbit_id": "14",
        "orbit_determination_date": "2017-04-06 08:30:56",
        "first_observation_date": "2015-11-06",
        "last_observation_date": "2015-11-30",
        "data_arc_in_days": 24,
        "observations_used": 73,
        "orbit_uncertainty": "7",
        "minimum_orbit_intersection": ".0379955",
        "jupiter_tisserand_invariant": "4.238",
        "epoch_osculation": "2459000.5",
        "eccentricity": ".3795914537367528",
        "semi_major_axis": "1.620012827466579",
        "inclination": "6.325468487150363",
        "ascending_node_longitude": "218.4110256287406",
        "orbital_period": "753.1406813290005",
        "perihelion_distance": "1.005069803216353",
        "perihelion_argument": "210.4142570207704",
        "aphelion_distance": "2.234955851716805",
        "perihelion_time": "2458863.884303163747",
        "mean_anomaly": "65.30207712888975",
        "mean_motion": ".4779983460257916",
        "equinox": "J2000",
        "orbit_class": {
            "orbit_class_type": "APO",
            "orbit_class_description": "Near-Earth asteroid orbits which cross the Earth’s orbit similar to that of 1862 Apollo",
            "orbit_class_range": "a (semi-major axis) > 1.0 AU; q (perihelion) < 1.017 AU"
        }
    },
    "is_sentry_object": false
}